*******************************************************************************
Ephemeris / WWW_USER Fri Mar  7 10:25:12 2025 Pasadena, USA      / Horizons    
*******************************************************************************
Target body name: (2018 RG5)                      {source: JPL#6}
Center body name: Earth (399)                     {source: DE441}
Center-site name: Mauna Kea
*******************************************************************************
Start time      : A.D. 2019-Jan-08 04:08:00.0000 UT      
Stop  time      : A.D. 2019-Jan-08 16:48:00.0000 UT      
Step-size       : 1 minutes
*******************************************************************************
Target pole/equ : undefined
Target radii    : undefined                                                    
Center geodetic : 204.5278, 19.8260847, 4.21024   {E-lon(deg),Lat(deg),Alt(km)}
Center cylindric: 204.5278, 6006.35451, 2151.0229 {E-lon(deg),Dxy(km),Dz(km)}
Center pole/equ : ITRF93                          {East-longitude positive}
Center radii    : 6378.137, 6378.137, 6356.752 km {Equator_a, b, pole_c}       
Target primary  : Sun
Vis. interferer : MOON (R_eq= 1737.400) km        {source: DE441}
Rel. light bend : Sun                             {source: DE441}
Rel. lght bnd GM: 1.3271E+11 km^3/s^2                                          
Small-body perts: Yes                             {source: SB441-N16}
Atmos refraction: NO (AIRLESS)
RA format       : HMS
Time format     : CAL 
Calendar mode   : Mixed Julian/Gregorian
RTS-only print  : NO       
EOP file        : eop.250306.p250602                                           
EOP coverage    : DATA-BASED 1962-JAN-20 TO 2025-MAR-06. PREDICTS-> 2025-JUN-01
Units conversion: 1 au= 149597870.700 km, c= 299792.458 km/s, 1 day= 86400.0 s 
Table cut-offs 1: Elevation (-90.0deg=NO ),Airmass (>38.000=NO), Daylight (YES)
Table cut-offs 2: Solar elongation (  0.0,180.0=NO ),Local Hour Angle( 0.0=NO )
Table cut-offs 3: RA/DEC angular rate (     0.0=NO )                           
*******************************************************************************
Initial IAU76/J2000 heliocentric ecliptic osculating elements (au, days, deg.):
  EPOCH=  2458374.5 ! 2018-Sep-13.00 (TDB)         Residual RMS= .44286        
   EC= .3970272763955992   QR= .9476094655819058   TP= 2458410.7007282218      
   OM= 172.9777515025259   W=  220.286388004559    IN= 6.065188755768435       
  Equivalent ICRF heliocentric cartesian coordinates (au, au/d):
   X= 1.011373795361920E+00  Y=-1.657289676662098E-01  Z=-6.569093016663846E-02
  VX=-6.707749535245534E-04 VY= 1.878070382659777E-02 VZ= 5.901532854039199E-03
Asteroid physical parameters (km, seconds, rotational period in hours):        
   GM= n.a.                RAD= n.a.               ROTPER= n.a.                
   H= 26.76                G= .150                 B-V= n.a.                   
                           ALBEDO= n.a.            STYP= n.a.                  
*******************************************************************************
 Date__(UT)__HR:MN     R.A._________(ICRF)_________DEC
******************************************************
$$SOE
 2019-Jan-08 10:17     09 27 02.328710 -04 48 43.52896
 2019-Jan-08 10:18     09 27 02.255512 -04 48 42.73657
 2019-Jan-08 10:19     09 27 02.182295 -04 48 41.94413
 2019-Jan-08 10:20     09 27 02.109060 -04 48 41.15165
 2019-Jan-08 10:21     09 27 02.035805 -04 48 40.35912
 2019-Jan-08 10:22     09 27 01.962532 -04 48 39.56653
 2019-Jan-08 10:23     09 27 01.889241 -04 48 38.77390
 2019-Jan-08 10:24     09 27 01.815931 -04 48 37.98123
 2019-Jan-08 10:25     09 27 01.742603 -04 48 37.18850
 2019-Jan-08 10:26     09 27 01.669257 -04 48 36.39572
 2019-Jan-08 10:27     09 27 01.595893 -04 48 35.60290
 2019-Jan-08 10:28     09 27 01.522511 -04 48 34.81002
 2019-Jan-08 10:29     09 27 01.449111 -04 48 34.01710
 2019-Jan-08 10:30     09 27 01.375693 -04 48 33.22413
 2019-Jan-08 10:31     09 27 01.302258 -04 48 32.43110
 2019-Jan-08 10:32     09 27 01.228805 -04 48 31.63803
 2019-Jan-08 10:33     09 27 01.155335 -04 48 30.84491
 2019-Jan-08 10:34     09 27 01.081847 -04 48 30.05174
 2019-Jan-08 10:35     09 27 01.008343 -04 48 29.25852
 2019-Jan-08 10:36     09 27 00.934821 -04 48 28.46525
 2019-Jan-08 10:37     09 27 00.861283 -04 48 27.67193
 2019-Jan-08 10:38     09 27 00.787728 -04 48 26.87856
 2019-Jan-08 10:39     09 27 00.714156 -04 48 26.08514
 2019-Jan-08 10:40     09 27 00.640567 -04 48 25.29167
 2019-Jan-08 10:41     09 27 00.566963 -04 48 24.49815
 2019-Jan-08 10:42     09 27 00.493342 -04 48 23.70458
 2019-Jan-08 10:43     09 27 00.419704 -04 48 22.91095
 2019-Jan-08 10:44     09 27 00.346051 -04 48 22.11728
 2019-Jan-08 10:45     09 27 00.272382 -04 48 21.32356
 2019-Jan-08 10:46     09 27 00.198696 -04 48 20.52979
 2019-Jan-08 10:47     09 27 00.124996 -04 48 19.73596
 2019-Jan-08 10:48     09 27 00.051279 -04 48 18.94209
 2019-Jan-08 10:49     09 26 59.977547 -04 48 18.14816
 2019-Jan-08 10:50     09 26 59.903800 -04 48 17.35419
 2019-Jan-08 10:51     09 26 59.830038 -04 48 16.56016
 2019-Jan-08 10:52     09 26 59.756260 -04 48 15.76608
 2019-Jan-08 10:53     09 26 59.682468 -04 48 14.97195
 2019-Jan-08 10:54     09 26 59.608660 -04 48 14.17777
 2019-Jan-08 10:55     09 26 59.534838 -04 48 13.38354
 2019-Jan-08 10:56     09 26 59.461001 -04 48 12.58926
 2019-Jan-08 10:57     09 26 59.387150 -04 48 11.79492
 2019-Jan-08 10:58     09 26 59.313284 -04 48 11.00054
 2019-Jan-08 10:59     09 26 59.239405 -04 48 10.20610
 2019-Jan-08 11:00     09 26 59.165511 -04 48 09.41161
 2019-Jan-08 11:01     09 26 59.091603 -04 48 08.61707
 2019-Jan-08 11:02     09 26 59.017681 -04 48 07.82248
 2019-Jan-08 11:03     09 26 58.943745 -04 48 07.02783
 2019-Jan-08 11:04     09 26 58.869796 -04 48 06.23314
 2019-Jan-08 11:05     09 26 58.795833 -04 48 05.43839
 2019-Jan-08 11:06     09 26 58.721857 -04 48 04.64359
 2019-Jan-08 11:07     09 26 58.647868 -04 48 03.84873
 2019-Jan-08 11:08     09 26 58.573865 -04 48 03.05383
 2019-Jan-08 11:09     09 26 58.499850 -04 48 02.25887
 2019-Jan-08 11:10     09 26 58.425821 -04 48 01.46386
 2019-Jan-08 11:11     09 26 58.351780 -04 48 00.66880
 2019-Jan-08 11:12     09 26 58.277727 -04 47 59.87368
 2019-Jan-08 11:13     09 26 58.203660 -04 47 59.07852
 2019-Jan-08 11:14     09 26 58.129582 -04 47 58.28330
 2019-Jan-08 11:15     09 26 58.055491 -04 47 57.48803
 2019-Jan-08 11:16     09 26 57.981388 -04 47 56.69270
 2019-Jan-08 11:17     09 26 57.907273 -04 47 55.89732
 2019-Jan-08 11:18     09 26 57.833146 -04 47 55.10189
 2019-Jan-08 11:19     09 26 57.759007 -04 47 54.30641
 2019-Jan-08 11:20     09 26 57.684857 -04 47 53.51087
 2019-Jan-08 11:21     09 26 57.610696 -04 47 52.71528
 2019-Jan-08 11:22     09 26 57.536523 -04 47 51.91964
 2019-Jan-08 11:23     09 26 57.462338 -04 47 51.12395
 2019-Jan-08 11:24     09 26 57.388143 -04 47 50.32820
 2019-Jan-08 11:25     09 26 57.313937 -04 47 49.53240
 2019-Jan-08 11:26     09 26 57.239720 -04 47 48.73654
 2019-Jan-08 11:27     09 26 57.165492 -04 47 47.94064
 2019-Jan-08 11:28     09 26 57.091253 -04 47 47.14467
 2019-Jan-08 11:29     09 26 57.017005 -04 47 46.34866
 2019-Jan-08 11:30     09 26 56.942745 -04 47 45.55259
 2019-Jan-08 11:31     09 26 56.868476 -04 47 44.75647
 2019-Jan-08 11:32     09 26 56.794197 -04 47 43.96029
 2019-Jan-08 11:33     09 26 56.719907 -04 47 43.16407
 2019-Jan-08 11:34     09 26 56.645608 -04 47 42.36778
 2019-Jan-08 11:35     09 26 56.571299 -04 47 41.57145
 2019-Jan-08 11:36     09 26 56.496981 -04 47 40.77506
 2019-Jan-08 11:37     09 26 56.422653 -04 47 39.97861
 2019-Jan-08 11:38     09 26 56.348316 -04 47 39.18212
 2019-Jan-08 11:39     09 26 56.273970 -04 47 38.38557
 2019-Jan-08 11:40     09 26 56.199615 -04 47 37.58896
 2019-Jan-08 11:41     09 26 56.125251 -04 47 36.79230
 2019-Jan-08 11:42     09 26 56.050878 -04 47 35.99559
 2019-Jan-08 11:43     09 26 55.976497 -04 47 35.19882
 2019-Jan-08 11:44     09 26 55.902107 -04 47 34.40200
 2019-Jan-08 11:45     09 26 55.827709 -04 47 33.60513
 2019-Jan-08 11:46     09 26 55.753302 -04 47 32.80820
 2019-Jan-08 11:47     09 26 55.678888 -04 47 32.01122
 2019-Jan-08 11:48     09 26 55.604465 -04 47 31.21418
 2019-Jan-08 11:49     09 26 55.530035 -04 47 30.41709
 2019-Jan-08 11:50     09 26 55.455597 -04 47 29.61994
 2019-Jan-08 11:51     09 26 55.381151 -04 47 28.82274
 2019-Jan-08 11:52     09 26 55.306698 -04 47 28.02549
 2019-Jan-08 11:53     09 26 55.232238 -04 47 27.22818
 2019-Jan-08 11:54     09 26 55.157770 -04 47 26.43082
 2019-Jan-08 11:55     09 26 55.083296 -04 47 25.63340
 2019-Jan-08 11:56     09 26 55.008815 -04 47 24.83593
 2019-Jan-08 11:57     09 26 54.934327 -04 47 24.03840
 2019-Jan-08 11:58     09 26 54.859832 -04 47 23.24082
 2019-Jan-08 11:59     09 26 54.785331 -04 47 22.44318
 2019-Jan-08 12:00     09 26 54.710823 -04 47 21.64550
 2019-Jan-08 12:01     09 26 54.636309 -04 47 20.84775
 2019-Jan-08 12:02     09 26 54.561789 -04 47 20.04995
 2019-Jan-08 12:03     09 26 54.487264 -04 47 19.25210
 2019-Jan-08 12:04     09 26 54.412732 -04 47 18.45419
 2019-Jan-08 12:05     09 26 54.338195 -04 47 17.65623
 2019-Jan-08 12:06     09 26 54.263652 -04 47 16.85821
 2019-Jan-08 12:07     09 26 54.189104 -04 47 16.06014
 2019-Jan-08 12:08     09 26 54.114550 -04 47 15.26201
 2019-Jan-08 12:09     09 26 54.039991 -04 47 14.46383
 2019-Jan-08 12:10     09 26 53.965428 -04 47 13.66559
 2019-Jan-08 12:11     09 26 53.890859 -04 47 12.86730
 2019-Jan-08 12:12     09 26 53.816286 -04 47 12.06896
 2019-Jan-08 12:13     09 26 53.741708 -04 47 11.27055
 2019-Jan-08 12:14     09 26 53.667126 -04 47 10.47210
 2019-Jan-08 12:15     09 26 53.592539 -04 47 09.67359
 2019-Jan-08 12:16     09 26 53.517948 -04 47 08.87502
 2019-Jan-08 12:17     09 26 53.443353 -04 47 08.07640
 2019-Jan-08 12:18     09 26 53.368754 -04 47 07.27773
 2019-Jan-08 12:19     09 26 53.294151 -04 47 06.47900
